{
  "type": "FeatureCollection",
  "features": [
    {
      "type": "Feature",
      "properties": {
        "norad_id": 41860,
        "name": "GSAT0212 (GALILEO 16)",
        "group": "galileo",
        "lat": 55.1842600627873,
        "lon": -171.15742437270544,
        "alt_km": 23212.953692978328,
        "timestamp": "2025-12-18T15:47:11.485956+00:00",
        "meta_object_name": "GSAT0212 (GALILEO 16)",
        "meta_object_id": "2016-069B",
        "meta_epoch": "2025-12-17T08:16:27.265728",
        "meta_mean_motion": 1.70474701,
        "meta_eccentricity": 0.00020752,
        "meta_inclination": 55.3825,
        "meta_ra_of_asc_node": 106.1181,
        "meta_arg_of_pericenter": 22.8873,
        "meta_mean_anomaly": 337.0809,
        "meta_ephemeris_type": 0,
        "meta_classification_type": "U",
        "meta_norad_cat_id": 41860,
        "meta_element_set_no": 999,
        "meta_rev_at_epoch": 5655,
        "meta_bstar": 0,
        "meta_mean_motion_dot": -9e-08,
        "meta_mean_motion_ddot": 0,
        "tle_line1": "1 41860U 16069B   25351.34476002 -.00000009  00000+0  00000+0 0  9991",
        "tle_line2": "2 41860  55.3825 106.1181 0002075  22.8873 337.0809  1.70474701 56553"
      },
      "geometry": {
        "type": "Point",
        "coordinates": [
          -171.15742437270544,
          55.1842600627873
        ]
      }
    },
    {
      "type": "Feature",
      "properties": {
        "norad_id": 41861,
        "name": "GSAT0213 (GALILEO 17)",
        "group": "galileo",
        "lat": -32.12297368631969,
        "lon": -48.25500521420897,
        "alt_km": 23222.551591480606,
        "timestamp": "2025-12-18T15:47:11.485968+00:00",
        "meta_object_name": "GSAT0213 (GALILEO 17)",
        "meta_object_id": "2016-069C",
        "meta_epoch": "2025-12-17T17:05:43.808640",
        "meta_mean_motion": 1.70474957,
        "meta_eccentricity": 0.00025722,
        "meta_inclination": 55.385,
        "meta_ra_of_asc_node": 106.1156,
        "meta_arg_of_pericenter": 282.262,
        "meta_mean_anomaly": 77.6683,
        "meta_ephemeris_type": 0,
        "meta_classification_type": "U",
        "meta_norad_cat_id": 41861,
        "meta_element_set_no": 999,
        "meta_rev_at_epoch": 5642,
        "meta_bstar": 0,
        "meta_mean_motion_dot": -9e-08,
        "meta_mean_motion_ddot": 0,
        "tle_line1": "1 41861U 16069C   25351.71231260 -.00000009  00000+0  00000+0 0  9998",
        "tle_line2": "2 41861  55.3850 106.1156 0002572 282.2620  77.6683  1.70474957 56424"
      },
      "geometry": {
        "type": "Point",
        "coordinates": [
          -48.25500521420897,
          -32.12297368631969
        ]
      }
    },
    {
      "type": "Feature",
      "properties": {
        "norad_id": 41862,
        "name": "GSAT0214 (GALILEO 18)",
        "group": "galileo",
        "lat": 38.63764737696311,
        "lon": -107.39632233313952,
        "alt_km": 23221.355994014,
        "timestamp": "2025-12-18T15:47:11.485979+00:00",
        "meta_object_name": "GSAT0214 (GALILEO 18)",
        "meta_object_id": "2016-069D",
        "meta_epoch": "2025-12-14T22:12:36.299232",
        "meta_mean_motion": 1.70474813,
        "meta_eccentricity": 0.00014239,
        "meta_inclination": 55.3815,
        "meta_ra_of_asc_node": 106.1855,
        "meta_arg_of_pericenter": 290.4821,
        "meta_mean_anomaly": 69.4663,
        "meta_ephemeris_type": 0,
        "meta_classification_type": "U",
        "meta_norad_cat_id": 41862,
        "meta_element_set_no": 999,
        "meta_rev_at_epoch": 5650,
        "meta_bstar": 0,
        "meta_mean_motion_dot": -6e-08,
        "meta_mean_motion_ddot": 0,
        "tle_line1": "1 41862U 16069D   25348.92542013 -.00000006  00000+0  00000+0 0  9996",
        "tle_line2": "2 41862  55.3815 106.1855 0001423 290.4821  69.4663  1.70474813 56507"
      },
      "geometry": {
        "type": "Point",
        "coordinates": [
          -107.39632233313952,
          38.63764737696311
        ]
      }
    },
    {
      "type": "Feature",
      "properties": {
        "norad_id": 43055,
        "name": "GSAT0215 (GALILEO 19)",
        "group": "galileo",
        "lat": -8.031154814978283,
        "lon": 52.1293405591233,
        "alt_km": 23226.726496704006,
        "timestamp": "2025-12-18T15:47:11.485990+00:00",
        "meta_object_name": "GSAT0215 (GALILEO 19)",
        "meta_object_id": "2017-079A",
        "meta_epoch": "2025-12-17T04:12:33.509376",
        "meta_mean_motion": 1.70474116,
        "meta_eccentricity": 0.00012477,
        "meta_inclination": 55.1286,
        "meta_ra_of_asc_node": 226.5156,
        "meta_arg_of_pericenter": 341.6592,
        "meta_mean_anomaly": 18.4365,
        "meta_ephemeris_type": 0,
        "meta_classification_type": "U",
        "meta_norad_cat_id": 43055,
        "meta_element_set_no": 999,
        "meta_rev_at_epoch": 4988,
        "meta_bstar": 0,
        "meta_mean_motion_dot": 5.5e-07,
        "meta_mean_motion_ddot": 0,
        "tle_line1": "1 43055U 17079A   25351.17538784  .00000055  00000+0  00000+0 0  9998",
        "tle_line2": "2 43055  55.1286 226.5156 0001247 341.6592  18.4365  1.70474116 49884"
      },
      "geometry": {
        "type": "Point",
        "coordinates": [
          52.1293405591233,
          -8.031154814978283
        ]
      }
    },
    {
      "type": "Feature",
      "properties": {
        "norad_id": 43056,
        "name": "GSAT0216 (GALILEO 20)",
        "group": "galileo",
        "lat": 9.01062059576566,
        "lon": -127.16920298387905,
        "alt_km": 23216.510179625315,
        "timestamp": "2025-12-18T15:47:11.486001+00:00",
        "meta_object_name": "GSAT0216 (GALILEO 20)",
        "meta_object_id": "2017-079B",
        "meta_epoch": "2025-12-16T21:07:19.515072",
        "meta_mean_motion": 1.70474167,
        "meta_eccentricity": 0.00024195,
        "meta_inclination": 55.129,
        "meta_ra_of_asc_node": 226.5236,
        "meta_arg_of_pericenter": 322.2527,
        "meta_mean_anomaly": 37.829,
        "meta_ephemeris_type": 0,
        "meta_classification_type": "U",
        "meta_norad_cat_id": 43056,
        "meta_element_set_no": 999,
        "meta_rev_at_epoch": 4989,
        "meta_bstar": 0,
        "meta_mean_motion_dot": 5.3e-07,
        "meta_mean_motion_ddot": 0,
        "tle_line1": "1 43056U 17079B   25350.88008698  .00000053  00000+0  00000+0 0  9990",
        "tle_line2": "2 43056  55.1290 226.5236 0002419 322.2527  37.8290  1.70474167 49893"
      },
      "geometry": {
        "type": "Point",
        "coordinates": [
          -127.16920298387905,
          9.01062059576566
        ]
      }
    },
    {
      "type": "Feature",
      "properties": {
        "norad_id": 43057,
        "name": "GSAT0217 (GALILEO 21)",
        "group": "galileo",
        "lat": -42.57000752446835,
        "lon": 86.28496137354048,
        "alt_km": 23230.211778723187,
        "timestamp": "2025-12-18T15:47:11.486012+00:00",
        "meta_object_name": "GSAT0217 (GALILEO 21)",
        "meta_object_id": "2017-079C",
        "meta_epoch": "2025-12-17T16:29:50.691264",
        "meta_mean_motion": 1.70474088,
        "meta_eccentricity": 0.00027909,
        "meta_inclination": 55.1268,
        "meta_ra_of_asc_node": 226.4994,
        "meta_arg_of_pericenter": 347.0606,
        "meta_mean_anomaly": 13.035,
        "meta_ephemeris_type": 0,
        "meta_classification_type": "U",
        "meta_norad_cat_id": 43057,
        "meta_element_set_no": 999,
        "meta_rev_at_epoch": 4989,
        "meta_bstar": 0,
        "meta_mean_motion_dot": 5.8e-07,
        "meta_mean_motion_ddot": 0,
        "tle_line1": "1 43057U 17079C   25351.68739226  .00000058  00000+0  00000+0 0  9993",
        "tle_line2": "2 43057  55.1268 226.4994 0002790 347.0606  13.0350  1.70474088 49899"
      },
      "geometry": {
        "type": "Point",
        "coordinates": [
          86.28496137354048,
          -42.57000752446835
        ]
      }
    },
    {
      "type": "Feature",
      "properties": {
        "norad_id": 43058,
        "name": "GSAT0218 (GALILEO 22)",
        "group": "galileo",
        "lat": 53.77147482396137,
        "lon": -25.528396734454883,
        "alt_km": 23223.913073394742,
        "timestamp": "2025-12-18T15:47:11.486038+00:00",
        "meta_object_name": "GSAT0218 (GALILEO 22)",
        "meta_object_id": "2017-079D",
        "meta_epoch": "2025-12-17T21:46:41.589984",
        "meta_mean_motion": 1.70474188,
        "meta_eccentricity": 0.00029691,
        "meta_inclination": 55.1269,
        "meta_ra_of_asc_node": 226.4911,
        "meta_arg_of_pericenter": 304.5931,
        "meta_mean_anomaly": 55.4827,
        "meta_ephemeris_type": 0,
        "meta_classification_type": "U",
        "meta_norad_cat_id": 43058,
        "meta_element_set_no": 999,
        "meta_rev_at_epoch": 4992,
        "meta_bstar": 0,
        "meta_mean_motion_dot": 5.9e-07,
        "meta_mean_motion_ddot": 0,
        "tle_line1": "1 43058U 17079D   25351.90742581  .00000059  00000+0  00000+0 0  9998",
        "tle_line2": "2 43058  55.1269 226.4911 0002969 304.5931  55.4827  1.70474188 49921"
      },
      "geometry": {
        "type": "Point",
        "coordinates": [
          -25.528396734454883,
          53.77147482396137
        ]
      }
    }
  ]
}